spkid,Name,e,a,q,i,om,w,ma,n,tp,per_y,sigma_e,sigma_a,sigma_q,sigma_i,sigma_om,sigma_w,sigma_ma
3771806,2016 SS46,0.2554,41.03,30.551,15.04,142.24,282.54,357.13,0.00375,2461566.43,263,1.1e-04,7.4e-03,1.2e-03,9.1e-05,1.4e-03,1.4e-02,8.5e-03
3802105,2016 SW50,0.5163,74.15,35.865,32.43,61.14,334.20,2.24,0.001544,2459350.78,639,3.8e-03,4.4e-01,7.5e-02,8.6e-03,1.1e-02,2.5e+00,7.0e-01
3893221,2016 SQ55,0.1001,43.4,39.052,17.54,147.43,129.05,111.95,0.003448,2428328.63,286,2.4e-04,7.5e-03,9.3e-03,3.7e-04,2.2e-03,9.9e-02,1.3e-01
3841641,2016 SS55,0.4793,73.91,38.485,28.47,182.76,158.85,22.76,0.001551,2446125.86,635,2.9e-04,3.3e-02,6.5e-03,4.2e-04,5.2e-04,2.4e-02,1.5e-02
3893223,2016 SU55,0.0274,38.21,37.161,27.73,61.46,183.63,154.39,0.004173,2423806.78,236,1.7e-04,5.5e-03,1.0e-02,6.0e-04,8.4e-04,4.1e-01,4.4e-01
54198865,2016 SY55,0.1875,39.67,32.228,17.26,116.95,333.71,325.26,0.003945,2469605.43,250,1.4e-04,5.6e-03,4.8e-03,2.5e-05,1.4e-03,3.5e-02,2.4e-02
3893218,2016 SA56,0.2783,50.14,36.186,16.63,145.02,282.31,349.48,0.002776,2464588.60,355,2.0e-04,9.7e-03,5.1e-03,2.1e-04,1.7e-03,5.2e-02,2.4e-02
54198374,2016 SB56,0.0622,40.42,37.902,17.36,149.07,24.78,238.36,0.003836,2492511.22,257,1.8e-03,8.2e-03,7.0e-02,7.7e-04,5.5e-03,1.8e+00,2.1e+00
3841215,2016 SE56,0.5606,70.7,31.068,26.77,175.10,219.12,3.61,0.001658,2458625.89,594,2.2e-05,3.8e-03,1.4e-04,2.3e-05,3.3e-05,4.1e-04,2.8e-04
54199509,2016 SK56,0.1010,43.17,38.810,15.57,155.60,253.16,357.08,0.003475,2461640.73,284,1.3e-04,8.3e-03,2.1e-03,1.4e-04,8.5e-04,5.4e-02,4.4e-02
54198378,2016 SN56,0.2012,46.03,36.767,26.62,61.46,65.30,299.25,0.003156,2480048.99,312,7.9e-04,2.2e-02,2.1e-02,1.1e-03,1.3e-03,5.2e-02,1.2e-01
54199094,2016 SO56,0.3984,63.19,38.012,16.30,164.30,175.03,31.18,0.001962,2444909.73,502,6.4e-04,4.8e-02,1.5e-02,7.7e-04,3.6e-03,5.2e-02,3.4e-02
3841637,2016 SP56,0.2623,50.1,36.960,20.00,75.33,29.61,325.51,0.002779,2473211.15,355,7.9e-05,5.9e-03,1.7e-03,1.3e-04,2.7e-04,1.0e-02,1.1e-02
54200422,2016 SU56,0.3655,60.19,38.188,19.13,77.39,346.64,351.41,0.002111,2464871.01,467,1.3e-03,6.3e-02,3.8e-02,1.5e-03,5.0e-03,3.1e-01,1.1e-01
3989511,2016 SY56,0.1207,43.14,37.936,14.00,104.44,335.09,334.68,0.003478,2468078.89,283,2.1e-04,5.7e-03,7.7e-03,1.8e-04,2.2e-03,1.1e-01,7.5e-02
54200432,2016 SF57,0.2092,39.49,31.228,16.88,93.60,205.36,79.51,0.003972,2440781.08,248,2.9e-04,1.0e-02,8.4e-03,3.3e-04,2.3e-03,4.2e-02,6.2e-02
3989512,2016 SJ57,0.0742,36.62,33.901,15.31,145.07,271.31,357.05,0.004448,2461463.04,222,8.0e-05,3.2e-03,2.4e-03,1.4e-04,1.5e-03,1.4e-01,1.2e-01
3989513,2016 SU57,0.1880,45.91,37.279,23.35,186.80,143.19,59.08,0.003169,2442155.42,311,2.6e-04,8.7e-03,7.9e-03,4.9e-04,7.3e-04,4.0e-02,3.1e-02
3989514,2016 SW57,0.1793,46.66,38.294,13.52,100.79,27.65,299.42,0.003092,2480391.93,319,5.5e-04,1.2e-02,2.0e-02,3.3e-04,2.9e-03,4.5e-02,7.0e-02
3893224,2016 SZ57,0.1250,39.5,34.566,16.73,111.24,175.82,86.39,0.003969,2435503.62,248,3.8e-01,4.5e+00,1.1e+01,1.6e-02,5.2e-01,4.0e+01,8.5e+01
54198377,2016 SE58,0.1390,43.72,37.643,16.04,150.86,152.68,84.44,0.003409,2436034.41,289,1.2e-03,1.8e-02,4.0e-02,7.2e-04,4.9e-03,6.8e-02,1.5e-01
3841643,2016 SG58,0.8589,248.9,35.114,13.21,119.03,296.32,0.02,0.000251,2460739.50,3.93e+03,1.2e-04,2.1e-01,9.4e-04,2.5e-05,5.3e-04,3.9e-03,1.3e-04
54198376,2016 SJ58,0.2816,44.07,31.660,20.61,81.30,345.13,353.19,0.003369,2462820.67,293,2.2e-04,1.1e-02,5.5e-03,4.2e-04,1.3e-03,6.8e-02,3.4e-02
3893222,2016 SQ58,0.1166,36.62,32.353,22.69,170.06,202.03,30.43,0.004447,2453957.35,222,8.9e-05,4.4e-03,1.5e-03,2.8e-04,6.6e-04,5.9e-02,4.7e-02
54199507,2016 SR58,0.5615,80.99,35.515,28.86,60.11,313.56,9.41,0.001352,2453839.84,729,3.3e-04,5.6e-02,4.7e-03,7.1e-04,7.3e-04,5.7e-02,1.0e-02
3841638,2016 SV58,0.2742,45.37,32.931,13.59,132.63,305.23,346.25,0.003225,2465065.94,306,2.0e-04,8.9e-03,5.0e-03,7.5e-05,2.3e-03,4.3e-02,1.9e-02
54198379,2016 SA59,0.8482,257.9,39.159,21.52,174.69,200.69,1.81,0.0002379,2453198.83,4.14e+03,3.8e-04,6.2e-01,6.5e-03,5.7e-04,1.5e-03,4.5e-02,5.5e-03
54199506,2016 SC59,0.1430,44.69,38.299,13.85,137.79,238.01,21.22,0.003299,2454369.23,299,1.9e-04,1.1e-02,3.8e-03,2.7e-04,3.5e-03,1.5e-01,1.1e-01
54196759,2016 SJ105,0.0579,38.05,35.847,21.37,171.05,7.52,240.35,0.004199,2489295.24,235,4.3e-04,1.3e-02,2.4e-02,7.9e-04,2.6e-03,4.1e-01,4.7e-01
54197641,2016 SR105,0.5855,47.22,19.571,18.73,122.38,6.66,339.78,0.003037,2467457.08,324,5.4e-04,4.7e-02,7.7e-03,6.7e-05,3.6e-03,1.5e-02,4.5e-02
54198944,2016 SW105,0.1943,36.39,29.321,30.36,18.22,71.28,252.69,0.00449,2484703.36,220,7.9e-04,2.0e-02,2.8e-02,6.9e-04,3.2e-03,2.7e-01,4.1e-01
54199093,2016 SX105,0.3115,51.07,35.161,36.01,73.99,313.36,3.28,0.002701,2459584.59,365,2.1e-04,1.6e-02,3.1e-03,6.4e-04,1.6e-03,9.5e-02,4.7e-02
54199117,2016 SY105,0.2568,45.57,33.866,26.40,65.32,262.44,357.03,0.003204,2461726.00,308,1.1e-03,7.2e-02,9.9e-03,7.5e-04,3.4e-03,1.8e-01,9.7e-02
54199129,2016 SZ105,0.0352,43.07,41.552,2.93,135.65,289.94,309.17,0.003487,2475377.60,283,7.4e-04,2.1e-02,3.1e-02,1.2e-03,2.5e-02,7.8e-01,7.1e-01
54199267,2016 SB106,0.0362,44.21,42.607,4.55,91.29,353.26,290.94,0.003353,2481396.72,294,7.5e-04,1.3e-02,3.4e-02,3.9e-05,1.6e-02,3.7e-01,3.4e-01
54199273,2016 SD106,0.8847,370.3,42.690,4.80,219.49,162.99,359.47,0.0001383,2464664.78,7.13e+03,4.3e-04,1.4e+00,7.2e-03,4.7e-04,6.4e-03,2.9e-02,2.8e-03
3989515,2016 TS94,0.1838,39.62,32.337,36.67,157.11,186.89,49.97,0.003952,2448157.69,249,1.5e-04,6.7e-03,3.9e-03,2.4e-04,6.8e-04,3.8e-02,3.0e-02
3989516,2016 TT94,0.1671,42.18,35.133,31.67,105.99,210.17,61.10,0.003598,2443817.66,274,2.8e-04,9.3e-03,7.0e-03,8.2e-05,1.4e-03,4.2e-02,3.9e-02
54198973,2016 TW94,0.0674,43.01,40.111,28.88,134.20,194.10,72.35,0.003494,2440093.17,282,2.0e-03,1.5e-02,7.7e-02,2.9e-04,4.2e-03,7.4e-01,5.0e-01
3841644,2016 TY94,0.2521,49.3,36.868,25.65,108.82,279.62,6.53,0.002848,2458506.59,346,1.3e-04,9.8e-03,1.3e-03,4.5e-05,1.2e-03,7.3e-02,4.3e-02
54199095,2016 TZ94,0.1605,44.5,37.362,24.15,121.61,181.33,77.18,0.00332,2437553.08,297,1.0e-03,2.5e-02,2.8e-02,1.3e-04,3.5e-03,7.3e-02,1.4e-01
54198873,2016 TA95,0.4902,70.44,35.913,25.45,133.17,250.56,6.81,0.001667,2456713.32,591,1.5e-04,2.3e-02,1.3e-03,1.5e-04,1.3e-03,3.6e-02,1.1e-02
3802112,2016 TS97,0.3269,53.89,36.276,32.26,146.45,65.38,187.50,0.002491,2527035.16,396,2.4e-02,9.6e-01,6.6e-01,7.1e-02,3.5e-01,6.1e+01,1.1e+02
54017333,2016 TN120,0.1681,53.06,44.137,29.42,126.02,51.89,226.11,0.00255,2513301.51,386,1.7e-02,3.4e-01,6.4e-01,3.7e-03,4.3e-02,1.1e+01,1.6e+01
54017332,2016 TO120,0.3326,59.77,39.892,32.62,83.07,196.22,70.66,0.002133,2424656.60,462,1.6e-01,7.2e+00,4.9e+00,1.1e-02,2.7e-02,9.6e+00,3.0e+01
54017339,2016 TP120,0.7652,171.4,40.253,32.63,126.83,350.27,351.76,0.0004391,2479568.47,2.24e+03,1.1e-02,7.2e+00,2.1e-01,2.7e-04,1.1e-02,1.1e-01,5.7e-01
54017340,2016 TQ120,0.4571,77.54,42.098,37.92,106.35,188.54,43.82,0.001444,2427592.31,683,1.3e+00,1.1e+02,3.9e+01,2.0e-01,1.2e+00,1.3e+01,1.5e+02
54017357,2016 TR120,0.1684,54.25,45.120,32.84,131.91,49.64,201.86,0.002466,2522072.68,400,4.1e-01,1.0e+01,1.4e+01,3.6e-01,1.5e+00,5.3e+02,7.5e+02
54199116,2016 TL176,0.2269,47.26,36.539,21.23,102.29,234.84,30.92,0.003033,2450605.97,325,9.0e-04,3.4e-02,2.3e-02,7.1e-05,5.2e-03,2.8e-01,1.4e-01
54199133,2016 TM176,0.3908,53.53,32.609,16.53,33.46,284.26,27.42,0.002517,2449906.79,392,2.7e-04,2.8e-02,6.0e-03,3.9e-04,6.9e-04,3.3e-02,3.1e-02
54197667,2016 UL273,0.1240,41.89,36.693,24.78,53.13,354.65,357.48,0.003635,2461494.19,271,2.2e-04,1.4e-02,3.4e-03,8.4e-04,8.7e-04,8.2e-02,6.4e-02
54198942,2016 UO273,0.2038,48.23,38.398,16.03,69.01,260.50,50.84,0.002943,2443525.31,335,3.3e-04,1.9e-02,8.8e-03,8.3e-04,2.4e-03,5.6e-02,5.6e-02
54198945,2016 UP273,0.6273,84.88,31.632,14.01,78.37,325.91,1.21,0.00126,2459839.55,782,3.5e-04,8.4e-02,3.2e-03,6.5e-04,3.0e-03,4.0e-02,7.4e-03
54199120,2016 UQ273,0.1514,43.76,37.134,28.64,52.12,267.47,54.37,0.003405,2444833.69,289,2.0e-04,9.9e-03,8.1e-03,6.6e-04,9.2e-04,6.7e-02,5.6e-02
54199119,2016 WB75,0.1893,45.92,37.223,20.60,129.46,217.46,31.75,0.003168,2450778.32,311,2.4e-04,1.6e-02,1.1e-02,3.5e-04,2.9e-03,1.4e-01,1.0e-01
54199089,2016 XO34,0.1226,46.8,41.067,34.33,173.01,210.96,15.54,0.003078,2455752.71,320,2.1e-04,1.3e-02,5.5e-03,1.4e-03,2.1e-03,4.5e-01,3.5e-01
54418849,2016 YA39,0.3567,47.17,30.342,11.56,268.42,237.03,11.55,0.003043,2457004.70,324,2.6e-04,2.1e-02,2.3e-03,5.5e-04,5.5e-03,7.9e-02,3.3e-02
54419710,2016 YB39,0.3639,56.24,35.777,22.31,304.94,146.25,36.67,0.002337,2445106.11,422,8.2e-03,4.0e-01,2.1e-01,4.2e-03,5.8e-03,6.6e-01,3.0e-01
54435273,2016 YB40,0.1801,52.87,43.350,25.82,167.44,258.68,69.24,0.002564,2433795.74,384,6.8e-03,1.6e-01,2.4e-01,4.1e-03,3.3e-03,3.1e-01,6.3e-01
54426253,2017 AD62,0.0824,41.68,38.247,23.62,307.64,306.89,277.83,0.003663,2483233.56,269,6.7e-03,3.6e-02,2.5e-01,4.4e-03,4.9e-03,8.2e-01,1.6e+00
54440092,2017 AC64,0.4669,76.04,40.535,28.03,312.80,150.58,22.13,0.001486,2445910.33,663,3.2e-03,2.9e-01,8.9e-02,4.3e-03,3.5e-03,3.3e-01,7.0e-02
54428536,2017 BE226,0.0292,47.58,46.189,14.04,295.78,206.44,17.90,0.003003,2454841.83,328,1.2e-03,2.2e-02,4.4e-02,3.5e-03,1.1e-02,1.1e+01,1.0e+01
54428537,2017 BF226,0.2062,39.37,31.252,8.38,248.83,57.05,228.66,0.00399,2493720.60,247,3.0e-03,4.1e-02,8.7e-02,4.6e-04,2.4e-02,1.6e+00,2.4e+00
54429258,2017 BK229,0.0787,45.27,41.703,9.95,249.64,78.53,193.90,0.003236,2512126.14,305,4.9e-04,1.3e-02,2.7e-02,7.9e-04,3.3e-02,4.6e+00,5.4e+00
54429835,2017 BC230,0.2261,41.77,32.328,10.47,268.22,315.86,321.39,0.003651,2471375.48,270,8.0e-03,1.3e-01,2.3e-01,1.8e-03,2.0e-02,8.3e-01,7.6e-02
54429836,2017 BD230,0.3725,53.81,33.764,12.81,192.36,224.49,58.90,0.002497,2437211.66,395,6.8e-03,3.3e-01,1.6e-01,2.0e-03,7.7e-03,1.2e-01,9.1e-01
54430342,2017 BG230,0.1151,46.1,40.793,23.81,173.83,139.51,209.83,0.003149,2508487.58,313,5.5e-04,1.8e-02,2.9e-02,3.0e-03,3.4e-03,9.6e-01,1.2e+00
54430343,2017 BH230,0.0852,47.27,43.240,31.74,167.11,107.85,249.83,0.003033,2497125.18,325,7.3e-03,5.1e-02,3.0e-01,3.4e-03,2.3e-03,3.5e+00,4.5e+00
